start=new Date('2021-09-13T00:00:00.000Z').valueOf();
sats=[{"TIME_SYSTEM":"UTC","TLE_LINE2":"2 48436  53.0546 338.3536 0001015  96.6217 224.3669 15.06405538 20077","CLASSIFICATION_TYPE":"U","REF_FRAME":"TEME","ELEMENT_SET_NO":"999","MEAN_MOTION_DOT":"-0.00052627","COUNTRY_CODE":"US","BSTAR":"-0.00353990000000","MEAN_MOTION":"15.06405538","APOAPSIS":"547.900","CENTER_NAME":"EARTH","NORAD_CAT_ID":"48436","SEMIMAJOR_AXIS":"6925.332","ECCENTRICITY":"0.00010150","EPOCH":"2021-09-12T22:00:00.999936","RA_OF_ASC_NODE":"338.3536","OBJECT_TYPE":"PAYLOAD","GP_ID":"184577881","FILE":"3114144","TLE_LINE1":"1 48436U 21040J   21255.91667824 -.00052627  00000-0 -35399-2 0  9995","MEAN_ELEMENT_THEORY":"SGP4","RCS_SIZE":"LARGE","REV_AT_EPOCH":"2007","OBJECT_NAME":"STARLINK-2639","PERIOD":"95.592","SITE":"AFETR","INCLINATION":"53.0546","DECAY_DATE":null,"EPHEMERIS_TYPE":"0","PERIAPSIS":"546.494","ARG_OF_PERICENTER":"96.6217","LAUNCH_DATE":"2021-05-09","MEAN_ANOMALY":"224.3669","OBJECT_ID":"2021-040J","MEAN_MOTION_DDOT":"0.0000000000000"},{"SITE":"AFETR","PERIOD":"95.695","REV_AT_EPOCH":"358","OBJECT_NAME":"STARLINK-2642","MEAN_ELEMENT_THEORY":"SGP4","TLE_LINE1":"1 48437U 21040K   21255.91667824 -.00031970  00000-0 -22330-2 0  9995","RCS_SIZE":"MEDIUM","FILE":"3114195","OBJECT_ID":"2021-040K","MEAN_MOTION_DDOT":"0.0000000000000","MEAN_ANOMALY":"335.8241","LAUNCH_DATE":"2021-05-09","ARG_OF_PERICENTER":"143.5671","DECAY_DATE":null,"EPHEMERIS_TYPE":"0","PERIAPSIS":"551.516","INCLINATION":"53.0550","BSTAR":"-0.00223300000000","MEAN_MOTION":"15.04773326","MEAN_MOTION_DOT":"-0.00031970","COUNTRY_CODE":"US","REF_FRAME":"TEME","ELEMENT_SET_NO":"999","CLASSIFICATION_TYPE":"U","TLE_LINE2":"2 48437  53.0550 347.7977 0000992 143.5671 335.8241 15.04773326  3587","TIME_SYSTEM":"UTC","GP_ID":"184601249","ECCENTRICITY":"0.00009920","RA_OF_ASC_NODE":"347.7977","OBJECT_TYPE":"PAYLOAD","EPOCH":"2021-09-12T22:00:00.999936","CENTER_NAME":"EARTH","NORAD_CAT_ID":"48437","SEMIMAJOR_AXIS":"6930.339","APOAPSIS":"552.891"},{"APOAPSIS":"547.692","CENTER_NAME":"EARTH","SEMIMAJOR_AXIS":"6925.328","NORAD_CAT_ID":"48438","ECCENTRICITY":"0.00007210","EPOCH":"2021-09-12T22:00:00.999936","RA_OF_ASC_NODE":"338.3573","OBJECT_TYPE":"PAYLOAD","GP_ID":"184601142","TIME_SYSTEM":"UTC","TLE_LINE2":"2 48438  53.0554 338.3573 0000721 100.0276 240.9283 15.06406708  3579","CLASSIFICATION_TYPE":"U","REF_FRAME":"TEME","ELEMENT_SET_NO":"999","MEAN_MOTION_DOT":"-0.00032547","COUNTRY_CODE":"US","BSTAR":"-0.00217580000000","MEAN_MOTION":"15.06406708","INCLINATION":"53.0554","DECAY_DATE":null,"EPHEMERIS_TYPE":"0","PERIAPSIS":"546.694","LAUNCH_DATE":"2021-05-09","ARG_OF_PERICENTER":"100.0276","MEAN_ANOMALY":"240.9283","OBJECT_ID":"2021-040L","MEAN_MOTION_DDOT":"0.0000000000000","FILE":"3114195","MEAN_ELEMENT_THEORY":"SGP4","TLE_LINE1":"1 48438U 21040L   21255.91667824 -.00032547  00000-0 -21758-2 0  9990","RCS_SIZE":"LARGE","REV_AT_EPOCH":"357","OBJECT_NAME":"STARLINK-2640","SITE":"AFETR","PERIOD":"95.592"},{"TLE_LINE1":"1 48439U 21040M   21255.91667824 -.00032293  00000-0 -21578-2 0  9999","MEAN_ELEMENT_THEORY":"SGP4","RCS_SIZE":"LARGE","FILE":"3114195","PERIOD":"95.591","SITE":"AFETR","REV_AT_EPOCH":"358","OBJECT_NAME":"STARLINK-2583","DECAY_DATE":null,"PERIAPSIS":"546.480","EPHEMERIS_TYPE":"0","INCLINATION":"53.0568","OBJECT_ID":"2021-040M","MEAN_MOTION_DDOT":"0.0000000000000","MEAN_ANOMALY":"257.9214","ARG_OF_PERICENTER":"103.0100","LAUNCH_DATE":"2021-05-09","REF_FRAME":"TEME","ELEMENT_SET_NO":"999","CLASSIFICATION_TYPE":"U","TLE_LINE2":"2 48439  53.0568 338.3544 0000972 103.0100 257.9214 15.06419690  3587","TIME_SYSTEM":"UTC","BSTAR":"-0.00215780000000","MEAN_MOTION":"15.06419690","MEAN_MOTION_DOT":"-0.00032293","COUNTRY_CODE":"US","CENTER_NAME":"EARTH","NORAD_CAT_ID":"48439","SEMIMAJOR_AXIS":"6925.288","APOAPSIS":"547.826","GP_ID":"184601156","ECCENTRICITY":"0.00009720","RA_OF_ASC_NODE":"338.3544","OBJECT_TYPE":"PAYLOAD","EPOCH":"2021-09-12T22:00:00.999936"},{"FILE":"3114195","RCS_SIZE":"LARGE","TLE_LINE1":"1 48440U 21040N   21255.91667824 -.00064421  00000-0 -43439-2 0  9999","MEAN_ELEMENT_THEORY":"SGP4","OBJECT_NAME":"STARLINK-2682","REV_AT_EPOCH":"358","PERIOD":"95.591","SITE":"AFETR","INCLINATION":"53.0547","PERIAPSIS":"546.532","EPHEMERIS_TYPE":"0","DECAY_DATE":null,"LAUNCH_DATE":"2021-05-09","ARG_OF_PERICENTER":"96.6945","MEAN_ANOMALY":"284.2746","MEAN_MOTION_DDOT":"0.0000000000000","OBJECT_ID":"2021-040N","TIME_SYSTEM":"UTC","TLE_LINE2":"2 48440  53.0547 338.3422 0000928  96.6945 284.2746 15.06412582  3582","CLASSIFICATION_TYPE":"U","ELEMENT_SET_NO":"999","REF_FRAME":"TEME","COUNTRY_CODE":"US","MEAN_MOTION_DOT":"-0.00064421","MEAN_MOTION":"15.06412582","BSTAR":"-0.00434390000000","APOAPSIS":"547.818","SEMIMAJOR_AXIS":"6925.310","NORAD_CAT_ID":"48440","CENTER_NAME":"EARTH","EPOCH":"2021-09-12T22:00:00.999936","OBJECT_TYPE":"PAYLOAD","RA_OF_ASC_NODE":"338.3422","ECCENTRICITY":"0.00009280","GP_ID":"184601343"},{"EPOCH":"2021-09-12T22:00:00.999936","OBJECT_TYPE":"PAYLOAD","RA_OF_ASC_NODE":"338.3402","ECCENTRICITY":"0.00010680","GP_ID":"184577877","APOAPSIS":"547.961","NORAD_CAT_ID":"48441","SEMIMAJOR_AXIS":"6925.357","CENTER_NAME":"EARTH","MEAN_MOTION_DOT":"-0.00030513","COUNTRY_CODE":"US","MEAN_MOTION":"15.06397374","BSTAR":"-0.00203850000000","TLE_LINE2":"2 48441  53.0539 338.3402 0001068 101.6092 299.3686 15.06397374 20904","TIME_SYSTEM":"UTC","CLASSIFICATION_TYPE":"U","ELEMENT_SET_NO":"999","REF_FRAME":"TEME","ARG_OF_PERICENTER":"101.6092","LAUNCH_DATE":"2021-05-09","MEAN_ANOMALY":"299.3686","MEAN_MOTION_DDOT":"0.0000000000000","OBJECT_ID":"2021-040P","INCLINATION":"53.0539","EPHEMERIS_TYPE":"0","PERIAPSIS":"546.482","DECAY_DATE":null,"OBJECT_NAME":"STARLINK-2702","REV_AT_EPOCH":"2090","PERIOD":"95.592","SITE":"AFETR","FILE":"3114144","RCS_SIZE":"LARGE","MEAN_ELEMENT_THEORY":"SGP4","TLE_LINE1":"1 48441U 21040P   21255.91667824 -.00030513  00000-0 -20385-2 0  9990"},{"BSTAR":"-0.00198720000000","MEAN_MOTION":"15.06411576","COUNTRY_CODE":"US","MEAN_MOTION_DOT":"-0.00029766","REF_FRAME":"TEME","ELEMENT_SET_NO":"999","TLE_LINE2":"2 48442  53.0546 338.3436 0001112  88.3690 332.5685 15.06411576  3580","TIME_SYSTEM":"UTC","CLASSIFICATION_TYPE":"U","GP_ID":"184601466","ECCENTRICITY":"0.00011120","EPOCH":"2021-09-12T22:00:00.999936","RA_OF_ASC_NODE":"338.3436","OBJECT_TYPE":"PAYLOAD","CENTER_NAME":"EARTH","SEMIMAJOR_AXIS":"6925.313","NORAD_CAT_ID":"48442","APOAPSIS":"547.948","SITE":"AFETR","PERIOD":"95.591","REV_AT_EPOCH":"358","OBJECT_NAME":"STARLINK-2644","MEAN_ELEMENT_THEORY":"SGP4","TLE_LINE1":"1 48442U 21040Q   21255.91667824 -.00029766  00000-0 -19872-2 0  9998","RCS_SIZE":"LARGE","FILE":"3114195","OBJECT_ID":"2021-040Q","MEAN_MOTION_DDOT":"0.0000000000000","LAUNCH_DATE":"2021-05-09","ARG_OF_PERICENTER":"88.3690","MEAN_ANOMALY":"332.5685","DECAY_DATE":null,"PERIAPSIS":"546.408","EPHEMERIS_TYPE":"0","INCLINATION":"53.0546"},{"GP_ID":"184577522","ECCENTRICITY":"0.00011040","RA_OF_ASC_NODE":"338.3408","OBJECT_TYPE":"PAYLOAD","EPOCH":"2021-09-12T22:00:00.999936","CENTER_NAME":"EARTH","NORAD_CAT_ID":"48443","SEMIMAJOR_AXIS":"6925.313","APOAPSIS":"547.942","BSTAR":"-0.00394830000000","MEAN_MOTION":"15.06411659","COUNTRY_CODE":"US","MEAN_MOTION_DOT":"-0.00058627","REF_FRAME":"TEME","ELEMENT_SET_NO":"999","CLASSIFICATION_TYPE":"U","TIME_SYSTEM":"UTC","TLE_LINE2":"2 48443  53.0538 338.3408 0001104  95.2152 345.7670 15.06411659 20909","OBJECT_ID":"2021-040R","MEAN_MOTION_DDOT":"0.0000000000000","MEAN_ANOMALY":"345.7670","LAUNCH_DATE":"2021-05-09","ARG_OF_PERICENTER":"95.2152","DECAY_DATE":null,"PERIAPSIS":"546.413","EPHEMERIS_TYPE":"0","INCLINATION":"53.0538","SITE":"AFETR","PERIOD":"95.591","REV_AT_EPOCH":"2090","OBJECT_NAME":"STARLINK-2663","MEAN_ELEMENT_THEORY":"SGP4","TLE_LINE1":"1 48443U 21040R   21255.91667824 -.00058627  00000-0 -39483-2 0  9997","RCS_SIZE":"LARGE","FILE":"3114144"},{"COUNTRY_CODE":"US","MEAN_MOTION_DOT":"-0.00028112","MEAN_MOTION":"15.06410301","BSTAR":"-0.00187530000000","CLASSIFICATION_TYPE":"U","TLE_LINE2":"2 48444  53.0549 338.3433 0001059  87.2145  13.7526 15.06410301  3582","TIME_SYSTEM":"UTC","ELEMENT_SET_NO":"999","REF_FRAME":"TEME","RA_OF_ASC_NODE":"338.3433","OBJECT_TYPE":"PAYLOAD","EPOCH":"2021-09-12T22:00:00.999936","ECCENTRICITY":"0.00010590","GP_ID":"184601667","APOAPSIS":"547.915","SEMIMAJOR_AXIS":"6925.317","NORAD_CAT_ID":"48444","CENTER_NAME":"EARTH","OBJECT_NAME":"STARLINK-2645","REV_AT_EPOCH":"358","PERIOD":"95.591","SITE":"AFETR","FILE":"3114195","RCS_SIZE":"LARGE","TLE_LINE1":"1 48444U 21040S   21255.91667824 -.00028112  00000-0 -18753-2 0  9991","MEAN_ELEMENT_THEORY":"SGP4","MEAN_ANOMALY":"13.7526","LAUNCH_DATE":"2021-05-09","ARG_OF_PERICENTER":"87.2145","MEAN_MOTION_DDOT":"0.0000000000000","OBJECT_ID":"2021-040S","INCLINATION":"53.0549","PERIAPSIS":"546.449","EPHEMERIS_TYPE":"0","DECAY_DATE":null},{"OBJECT_ID":"2021-040T","MEAN_MOTION_DDOT":"0.0000000000000","ARG_OF_PERICENTER":"96.3252","LAUNCH_DATE":"2021-05-09","MEAN_ANOMALY":"24.6288","DECAY_DATE":null,"PERIAPSIS":"546.459","EPHEMERIS_TYPE":"0","INCLINATION":"53.0536","SITE":"AFETR","PERIOD":"95.591","REV_AT_EPOCH":"358","OBJECT_NAME":"STARLINK-2634","TLE_LINE1":"1 48445U 21040T   21255.91667824 -.00071469  00000-0 -48250-2 0  9990","MEAN_ELEMENT_THEORY":"SGP4","RCS_SIZE":"LARGE","FILE":"3114195","GP_ID":"184601250","ECCENTRICITY":"0.00010010","EPOCH":"2021-09-12T22:00:00.999936","RA_OF_ASC_NODE":"338.3421","OBJECT_TYPE":"PAYLOAD","CENTER_NAME":"EARTH","SEMIMAJOR_AXIS":"6925.288","NORAD_CAT_ID":"48445","APOAPSIS":"547.846","BSTAR":"-0.00482500000000","MEAN_MOTION":"15.06419860","COUNTRY_CODE":"US","MEAN_MOTION_DOT":"-0.00071469","REF_FRAME":"TEME","ELEMENT_SET_NO":"999","TIME_SYSTEM":"UTC","TLE_LINE2":"2 48445  53.0536 338.3421 0001001  96.3252  24.6288 15.06419860  3588","CLASSIFICATION_TYPE":"U"}];
